[{"OBJECT_NAME":"ONEWEB-0050","OBJECT_ID":"2020-020AF","EPOCH":"2026-01-11T06:21:12.107808","MEAN_MOTION":14.89713119,"ECCENTRICITY":0.00039119,"INCLINATION":88.9221,"RA_OF_ASC_NODE":254.6147,"ARG_OF_PERICENTER":139.3807,"MEAN_ANOMALY":220.7714,"EPHEMERIS_TYPE":0,"CLASSIFICATION_TYPE":"U","NORAD_CAT_ID":45453,"ELEMENT_SET_NO":999,"REV_AT_EPOCH":31701,"BSTAR":0.00032888982,"MEAN_MOTION_DOT":3.168e-5,"MEAN_MOTION_DDOT":0},{"OBJECT_NAME":"ONEWEB-0034","OBJECT_ID":"2020-020AG","EPOCH":"2026-01-11T08:03:20.947968","MEAN_MOTION":13.11403154,"ECCENTRICITY":0.00018053,"INCLINATION":87.883,"RA_OF_ASC_NODE":52.2815,"ARG_OF_PERICENTER":98.0278,"MEAN_ANOMALY":262.1055,"EPHEMERIS_TYPE":0,"CLASSIFICATION_TYPE":"U","NORAD_CAT_ID":45454,"ELEMENT_SET_NO":999,"REV_AT_EPOCH":28203,"BSTAR":0.00087116633,"MEAN_MOTION_DOT":3.21e-6,"MEAN_MOTION_DDOT":0},{"OBJECT_NAME":"ONEWEB-0060","OBJECT_ID":"2020-020AH","EPOCH":"2026-01-11T03:42:04.614912","MEAN_MOTION":13.11421625,"ECCENTRICITY":0.00021162,"INCLINATION":87.8826,"RA_OF_ASC_NODE":52.3327,"ARG_OF_PERICENTER":67.6743,"MEAN_ANOMALY":292.4609,"EPHEMERIS_TYPE":0,"CLASSIFICATION_TYPE":"U","NORAD_CAT_ID":45455,"ELEMENT_SET_NO":999,"REV_AT_EPOCH":28196,"BSTAR":-8.198793e-6,"MEAN_MOTION_DOT":1.0e-7,"MEAN_MOTION_DDOT":0},{"OBJECT_NAME":"ONEWEB-0086","OBJECT_ID":"2020-020AJ","EPOCH":"2026-01-11T03:11:33.141408","MEAN_MOTION":13.1141683,"ECCENTRICITY":0.00013948,"INCLINATION":87.8833,"RA_OF_ASC_NODE":52.3192,"ARG_OF_PERICENTER":72.7062,"MEAN_ANOMALY":287.4218,"EPHEMERIS_TYPE":0,"CLASSIFICATION_TYPE":"U","NORAD_CAT_ID":45456,"ELEMENT_SET_NO":999,"REV_AT_EPOCH":28202,"BSTAR":-0.0015389053,"MEAN_MOTION_DOT":-5.33e-6,"MEAN_MOTION_DDOT":0},{"OBJECT_NAME":"ONEWEB-0088","OBJECT_ID":"2020-020AK","EPOCH":"2026-01-11T08:09:25.750368","MEAN_MOTION":13.11416937,"ECCENTRICITY":0.00020677,"INCLINATION":87.8841,"RA_OF_ASC_NODE":52.2367,"ARG_OF_PERICENTER":97.8392,"MEAN_ANOMALY":262.297,"EPHEMERIS_TYPE":0,"CLASSIFICATION_TYPE":"U","NORAD_CAT_ID":45457,"ELEMENT_SET_NO":999,"REV_AT_EPOCH":28198,"BSTAR":0.00070574916,"MEAN_MOTION_DOT":2.63e-6,"MEAN_MOTION_DDOT":0},{"OBJECT_NAME":"ONEWEB-0102","OBJECT_ID":"2020-100A","EPOCH":"2026-01-11T07:32:20.153760","MEAN_MOTION":13.124434,"ECCENTRICITY":0.00015844,"INCLINATION":87.8921,"RA_OF_ASC_NODE":21.8343,"ARG_OF_PERICENTER":83.6308,"MEAN_ANOMALY":276.5001,"EPHEMERIS_TYPE":0,"CLASSIFICATION_TYPE":"U","NORAD_CAT_ID":47258,"ELEMENT_SET_NO":999,"REV_AT_EPOCH":24415,"BSTAR":0.00123607,"MEAN_MOTION_DOT":4.57e-6,"MEAN_MOTION_DDOT":0},{"OBJECT_NAME":"ONEWEB-0109","OBJECT_ID":"2020-100B","EPOCH":"2026-01-11T07:44:31.596288","MEAN_MOTION":13.124428,"ECCENTRICITY":0.00016289,"INCLINATION":87.8926,"RA_OF_ASC_NODE":21.8032,"ARG_OF_PERICENTER":92.1144,"MEAN_ANOMALY":268.0172,"EPHEMERIS_TYPE":0,"CLASSIFICATION_TYPE":"U","NORAD_CAT_ID":47259,"ELEMENT_SET_NO":999,"REV_AT_EPOCH":24398,"BSTAR":0.0012082111,"MEAN_MOTION_DOT":4.47e-6,"MEAN_MOTION_DDOT":0},{"OBJECT_NAME":"ONEWEB-0110","OBJECT_ID":"2020-100C","EPOCH":"2026-01-11T06:33:46.584576","MEAN_MOTION":13.12442416,"ECCENTRICITY":0.00016421,"INCLINATION":87.8926,"RA_OF_ASC_NODE":21.7972,"ARG_OF_PERICENTER":81.4598,"MEAN_ANOMALY":278.6717,"EPHEMERIS_TYPE":0,"CLASSIFICATION_TYPE":"U","NORAD_CAT_ID":47260,"ELEMENT_SET_NO":999,"REV_AT_EPOCH":24414,"BSTAR":-0.00095012965,"MEAN_MOTION_DOT":-3.29e-6,"MEAN_MOTION_DDOT":0},{"OBJECT_NAME":"ONEWEB-0111","OBJECT_ID":"2020-100D","EPOCH":"2026-01-11T07:17:40.962048","MEAN_MOTION":13.12445146,"ECCENTRICITY":0.00018098,"INCLINATION":87.8929,"RA_OF_ASC_NODE":21.8095,"ARG_OF_PERICENTER":86.1945,"MEAN_ANOMALY":273.939,"EPHEMERIS_TYPE":0,"CLASSIFICATION_TYPE":"U","NORAD_CAT_ID":47261,"ELEMENT_SET_NO":999,"REV_AT_EPOCH":24398,"BSTAR":0.00010682055,"MEAN_MOTION_DOT":5.1e-7,"MEAN_MOTION_DDOT":0},{"OBJECT_NAME":"ONEWEB-0114","OBJECT_ID":"2020-100E","EPOCH":"2026-01-11T06:11:49.214400","MEAN_MOTION":13.1244215,"ECCENTRICITY":0.00016429,"INCLINATION":87.893,"RA_OF_ASC_NODE":21.8137,"ARG_OF_PERICENTER":102.647,"MEAN_ANOMALY":257.4842,"EPHEMERIS_TYPE":0,"CLASSIFICATION_TYPE":"U","NORAD_CAT_ID":47262,"ELEMENT_SET_NO":999,"REV_AT_EPOCH":24393,"BSTAR":0.00031085269,"MEAN_MOTION_DOT":1.25e-6,"MEAN_MOTION_DDOT":0},{"OBJECT_NAME":"ONEWEB-0117","OBJECT_ID":"2020-100F","EPOCH":"2026-01-11T05:59:37.902336","MEAN_MOTION":13.12442008,"ECCENTRICITY":0.00017286,"INCLINATION":87.8926,"RA_OF_ASC_NODE":21.8114,"ARG_OF_PERICENTER":89.2244,"MEAN_ANOMALY":270.9083,"EPHEMERIS_TYPE":0,"CLASSIFICATION_TYPE":"U","NORAD_CAT_ID":47263,"ELEMENT_SET_NO":999,"REV_AT_EPOCH":24394,"BSTAR":0.0010213812,"MEAN_MOTION_DOT":3.8e-6,"MEAN_MOTION_DDOT":0},{"OBJECT_NAME":"ONEWEB-0118","OBJECT_ID":"2020-100G","EPOCH":"2026-01-11T06:48:25.643232","MEAN_MOTION":13.12443354,"ECCENTRICITY":0.00019017,"INCLINATION":87.8929,"RA_OF_ASC_NODE":21.8054,"ARG_OF_PERICENTER":100.896,"MEAN_ANOMALY":259.2382,"EPHEMERIS_TYPE":0,"CLASSIFICATION_TYPE":"U","NORAD_CAT_ID":47264,"ELEMENT_SET_NO":999,"REV_AT_EPOCH":24414,"BSTAR":-0.0011517566,"MEAN_MOTION_DOT":-4.02e-6,"MEAN_MOTION_DDOT":0},{"OBJECT_NAME":"ONEWEB-0119","OBJECT_ID":"2020-100H","EPOCH":"2026-01-11T07:25:01.672896","MEAN_MOTION":13.12445422,"ECCENTRICITY":0.00017179,"INCLINATION":87.8919,"RA_OF_ASC_NODE":21.8315,"ARG_OF_PERICENTER":90.513,"MEAN_ANOMALY":269.6195,"EPHEMERIS_TYPE":0,"CLASSIFICATION_TYPE":"U","NORAD_CAT_ID":47265,"ELEMENT_SET_NO":999,"REV_AT_EPOCH":24412,"BSTAR":0.00085044605,"MEAN_MOTION_DOT":3.19e-6,"MEAN_MOTION_DDOT":0},{"OBJECT_NAME":"ONEWEB-0120","OBJECT_ID":"2020-100J","EPOCH":"2026-01-11T02:30:01.070784","MEAN_MOTION":13.12441312,"ECCENTRICITY":0.00017033,"INCLINATION":87.8918,"RA_OF_ASC_NODE":21.8734,"ARG_OF_PERICENTER":93.9298,"MEAN_ANOMALY":266.2025,"EPHEMERIS_TYPE":0,"CLASSIFICATION_TYPE":"U","NORAD_CAT_ID":47266,"ELEMENT_SET_NO":999,"REV_AT_EPOCH":24412,"BSTAR":0.00062212155,"MEAN_MOTION_DOT":2.37e-6,"MEAN_MOTION_DDOT":0},{"OBJECT_NAME":"ONEWEB-0121","OBJECT_ID":"2020-100K","EPOCH":"2026-01-11T00:22:57.153792","MEAN_MOTION":13.12441441,"ECCENTRICITY":0.00017554,"INCLINATION":87.8925,"RA_OF_ASC_NODE":21.8618,"ARG_OF_PERICENTER":83.8121,"MEAN_ANOMALY":276.3207,"EPHEMERIS_TYPE":0,"CLASSIFICATION_TYPE":"U","NORAD_CAT_ID":47267,"ELEMENT_SET_NO":999,"REV_AT_EPOCH":24402,"BSTAR":0.0011975174,"MEAN_MOTION_DOT":4.44e-6,"MEAN_MOTION_DDOT":0},{"OBJECT_NAME":"ONEWEB-0122","OBJECT_ID":"2020-100L","EPOCH":"2026-01-11T07:34:33.100896","MEAN_MOTION":13.12447642,"ECCENTRICITY":0.00015922,"INCLINATION":87.8926,"RA_OF_ASC_NODE":21.8047,"ARG_OF_PERICENTER":89.4798,"MEAN_ANOMALY":270.6513,"EPHEMERIS_TYPE":0,"CLASSIFICATION_TYPE":"U","NORAD_CAT_ID":47268,"ELEMENT_SET_NO":999,"REV_AT_EPOCH":24397,"BSTAR":0.0015305492,"MEAN_MOTION_DOT":5.63e-6,"MEAN_MOTION_DDOT":0},{"OBJECT_NAME":"ONEWEB-0123","OBJECT_ID":"2020-100M","EPOCH":"2026-01-11T07:27:26.285760","MEAN_MOTION":13.12445403,"ECCENTRICITY":0.00018395,"INCLINATION":87.892,"RA_OF_ASC_NODE":21.8298,"ARG_OF_PERICENTER":92.4746,"MEAN_ANOMALY":267.6593,"EPHEMERIS_TYPE":0,"CLASSIFICATION_TYPE":"U","NORAD_CAT_ID":47269,"ELEMENT_SET_NO":999,"REV_AT_EPOCH":24411,"BSTAR":0.0012700564,"MEAN_MOTION_DOT":4.7e-6,"MEAN_MOTION_DDOT":0}]
