ONEWEB-0050             
1 45453U 20020AF  26011.26472347  .00003168  00000+0  32889-3 0  9990
2 45453  88.9221 254.6147 0003911 139.3807 220.7714 14.89713119317016
ONEWEB-0034             
1 45454U 20020AG  26011.33565912  .00000321  00000+0  87117-3 0  9992
2 45454  87.8830  52.2815 0001805  98.0278 262.1055 13.11403154282038
ONEWEB-0060             
1 45455U 20020AH  26011.15422008  .00000010  00000+0 -81988-5 0  9999
2 45455  87.8826  52.3327 0002116  67.6743 292.4609 13.11421625281963
ONEWEB-0086             
1 45456U 20020AJ  26011.13302247 -.00000533  00000+0 -15389-2 0  9990
2 45456  87.8833  52.3192 0001394  72.7062 287.4218 13.11416830282020
ONEWEB-0088             
1 45457U 20020AK  26011.33988137  .00000263  00000+0  70575-3 0  9998
2 45457  87.8841  52.2367 0002067  97.8392 262.2970 13.11416937281983
ONEWEB-0102             
1 47258U 20100A   26011.31412215  .00000457  00000+0  12361-2 0  9998
2 47258  87.8921  21.8343 0001584  83.6308 276.5001 13.12443400244159
ONEWEB-0109             
1 47259U 20100B   26011.32258792  .00000447  00000+0  12082-2 0  9997
2 47259  87.8926  21.8032 0001628  92.1144 268.0172 13.12442800243980
ONEWEB-0110             
1 47260U 20100C   26011.27345584 -.00000329  00000+0 -95013-3 0  9996
2 47260  87.8926  21.7972 0001642  81.4598 278.6717 13.12442416244148
ONEWEB-0111             
1 47261U 20100D   26011.30394632  .00000051  00000+0  10682-3 0  9998
2 47261  87.8929  21.8095 0001809  86.1945 273.9390 13.12445146243981
ONEWEB-0114             
1 47262U 20100E   26011.25820850  .00000125  00000+0  31085-3 0  9991
2 47262  87.8930  21.8137 0001642 102.6470 257.4842 13.12442150243939
ONEWEB-0117             
1 47263U 20100F   26011.24974424  .00000380  00000+0  10214-2 0  9991
2 47263  87.8926  21.8114 0001728  89.2244 270.9083 13.12442008243944
ONEWEB-0118             
1 47264U 20100G   26011.28363013 -.00000402  00000+0 -11518-2 0  9997
2 47264  87.8929  21.8054 0001901 100.8960 259.2382 13.12443354244149
ONEWEB-0119             
1 47265U 20100H   26011.30904714  .00000319  00000+0  85045-3 0  9992
2 47265  87.8919  21.8315 0001717  90.5130 269.6195 13.12445422244121
ONEWEB-0120             
1 47266U 20100J   26011.10417906  .00000237  00000+0  62212-3 0  9993
2 47266  87.8918  21.8734 0001703  93.9298 266.2025 13.12441312244122
ONEWEB-0121             
1 47267U 20100K   26011.01593928  .00000444  00000+0  11975-2 0  9992
2 47267  87.8925  21.8618 0001755  83.8121 276.3207 13.12441441244028
ONEWEB-0122             
1 47268U 20100L   26011.31566089  .00000563  00000+0  15305-2 0  9997
2 47268  87.8926  21.8047 0001592  89.4798 270.6513 13.12447642243976
ONEWEB-0123             
1 47269U 20100M   26011.31072090  .00000470  00000+0  12701-2 0  9996
2 47269  87.8920  21.8298 0001839  92.4746 267.6593 13.12445403244114
